{"fetched_at":"2026-07-16T17:46:00.127Z","source":"https://celestrak.org/NORAD/elements/gp.php?GROUP=globalstar&FORMAT=JSON","constellation":"globalstar","records":[{"OBJECT_NAME":"GLOBALSTAR M069","OBJECT_ID":"2007-020C","EPOCH":"2026-07-16T07:01:37.029216","CLASSIFICATION_TYPE":"U","MEAN_MOTION":12.23472221,"ECCENTRICITY":0.00016354,"INCLINATION":52.001,"RA_OF_ASC_NODE":169.7453,"ARG_OF_PERICENTER":213.027,"MEAN_ANOMALY":286.2582,"EPHEMERIS_TYPE":0,"NORAD_CAT_ID":31573,"ELEMENT_SET_NO":999,"REV_AT_EPOCH":88236,"BSTAR":-0.00021629915,"MEAN_MOTION_DOT":-0.00000116,"MEAN_MOTION_DDOT":0},{"OBJECT_NAME":"GLOBALSTAR M072","OBJECT_ID":"2007-020D","EPOCH":"2026-07-16T00:21:22.170816","CLASSIFICATION_TYPE":"U","MEAN_MOTION":11.91658844,"ECCENTRICITY":0.00016547,"INCLINATION":51.9949,"RA_OF_ASC_NODE":23.4984,"ARG_OF_PERICENTER":37.1365,"MEAN_ANOMALY":132.9551,"EPHEMERIS_TYPE":0,"NORAD_CAT_ID":31574,"ELEMENT_SET_NO":999,"REV_AT_EPOCH":87841,"BSTAR":0.00017033849,"MEAN_MOTION_DOT":-7.2e-7,"MEAN_MOTION_DDOT":0},{"OBJECT_NAME":"GLOBALSTAR M066","OBJECT_ID":"2007-048C","EPOCH":"2026-07-16T07:24:43.477056","CLASSIFICATION_TYPE":"U","MEAN_MOTION":12.30389552,"ECCENTRICITY":0.00055817,"INCLINATION":51.9608,"RA_OF_ASC_NODE":334.3135,"ARG_OF_PERICENTER":104.0043,"MEAN_ANOMALY":262.0629,"EPHEMERIS_TYPE":0,"NORAD_CAT_ID":32265,"ELEMENT_SET_NO":999,"REV_AT_EPOCH":86381,"BSTAR":0.00040402959,"MEAN_MOTION_DOT":-4.7e-7,"MEAN_MOTION_DDOT":0},{"OBJECT_NAME":"GLOBALSTAR M079","OBJECT_ID":"2010-054A","EPOCH":"2026-07-15T21:34:23.054880","CLASSIFICATION_TYPE":"U","MEAN_MOTION":12.62266431,"ECCENTRICITY":0.0001129,"INCLINATION":52.0055,"RA_OF_ASC_NODE":21.2674,"ARG_OF_PERICENTER":78.9268,"MEAN_ANOMALY":67.7048,"EPHEMERIS_TYPE":0,"NORAD_CAT_ID":37188,"ELEMENT_SET_NO":999,"REV_AT_EPOCH":72617,"BSTAR":-0.0000028003,"MEAN_MOTION_DOT":-0.00000104,"MEAN_MOTION_DDOT":0},{"OBJECT_NAME":"GLOBALSTAR M074","OBJECT_ID":"2010-054B","EPOCH":"2026-07-15T22:17:59.279712","CLASSIFICATION_TYPE":"U","MEAN_MOTION":12.62262033,"ECCENTRICITY":0.0000869,"INCLINATION":52.0032,"RA_OF_ASC_NODE":20.4362,"ARG_OF_PERICENTER":93.4873,"MEAN_ANOMALY":70.7747,"EPHEMERIS_TYPE":0,"NORAD_CAT_ID":37189,"ELEMENT_SET_NO":999,"REV_AT_EPOCH":72678,"BSTAR":0.0000068052,"MEAN_MOTION_DOT":-0.00000103,"MEAN_MOTION_DDOT":0},{"OBJECT_NAME":"GLOBALSTAR M076","OBJECT_ID":"2010-054C","EPOCH":"2026-07-15T18:19:53.021568","CLASSIFICATION_TYPE":"U","MEAN_MOTION":12.62262357,"ECCENTRICITY":0.00010953,"INCLINATION":52.0044,"RA_OF_ASC_NODE":21.1451,"ARG_OF_PERICENTER":93.6543,"MEAN_ANOMALY":278.7739,"EPHEMERIS_TYPE":0,"NORAD_CAT_ID":37190,"ELEMENT_SET_NO":999,"REV_AT_EPOCH":72648,"BSTAR":0.000046166245,"MEAN_MOTION_DOT":-9.6e-7,"MEAN_MOTION_DDOT":0},{"OBJECT_NAME":"GLOBALSTAR M077","OBJECT_ID":"2010-054D","EPOCH":"2026-07-16T03:58:40.846656","CLASSIFICATION_TYPE":"U","MEAN_MOTION":11.67547416,"ECCENTRICITY":0.00022511,"INCLINATION":51.996,"RA_OF_ASC_NODE":105.7432,"ARG_OF_PERICENTER":226.9989,"MEAN_ANOMALY":281.7118,"EPHEMERIS_TYPE":0,"NORAD_CAT_ID":37191,"ELEMENT_SET_NO":999,"REV_AT_EPOCH":72452,"BSTAR":-0.00043764937,"MEAN_MOTION_DOT":-0.00000102,"MEAN_MOTION_DDOT":0},{"OBJECT_NAME":"GLOBALSTAR M075","OBJECT_ID":"2010-054E","EPOCH":"2026-07-16T03:04:37.164288","CLASSIFICATION_TYPE":"U","MEAN_MOTION":12.62267845,"ECCENTRICITY":0.00007668,"INCLINATION":51.9955,"RA_OF_ASC_NODE":62.0736,"ARG_OF_PERICENTER":65.7269,"MEAN_ANOMALY":103.9288,"EPHEMERIS_TYPE":0,"NORAD_CAT_ID":37192,"ELEMENT_SET_NO":999,"REV_AT_EPOCH":72559,"BSTAR":0.000078029737,"MEAN_MOTION_DOT":-9e-7,"MEAN_MOTION_DDOT":0},{"OBJECT_NAME":"GLOBALSTAR M073","OBJECT_ID":"2010-054F","EPOCH":"2026-07-15T19:27:18.407808","CLASSIFICATION_TYPE":"U","MEAN_MOTION":12.62266879,"ECCENTRICITY":0.0001063,"INCLINATION":52.0081,"RA_OF_ASC_NODE":337.1636,"ARG_OF_PERICENTER":96.8782,"MEAN_ANOMALY":67.2732,"EPHEMERIS_TYPE":0,"NORAD_CAT_ID":37193,"ELEMENT_SET_NO":999,"REV_AT_EPOCH":72754,"BSTAR":-0.000003019,"MEAN_MOTION_DOT":-0.00000104,"MEAN_MOTION_DDOT":0},{"OBJECT_NAME":"GLOBALSTAR M083","OBJECT_ID":"2011-033A","EPOCH":"2026-07-16T06:28:57.840960","CLASSIFICATION_TYPE":"U","MEAN_MOTION":12.62264232,"ECCENTRICITY":0.00007508,"INCLINATION":51.9864,"RA_OF_ASC_NODE":283.9552,"ARG_OF_PERICENTER":107.7972,"MEAN_ANOMALY":286.6083,"EPHEMERIS_TYPE":0,"NORAD_CAT_ID":37739,"ELEMENT_SET_NO":999,"REV_AT_EPOCH":69662,"BSTAR":0.000177594,"MEAN_MOTION_DOT":-7.2e-7,"MEAN_MOTION_DDOT":0},{"OBJECT_NAME":"GLOBALSTAR M088","OBJECT_ID":"2011-033B","EPOCH":"2026-07-16T04:11:53.500128","CLASSIFICATION_TYPE":"U","MEAN_MOTION":12.62269486,"ECCENTRICITY":0.00000513,"INCLINATION":52.0189,"RA_OF_ASC_NODE":190.7411,"ARG_OF_PERICENTER":88.0471,"MEAN_ANOMALY":352.3077,"EPHEMERIS_TYPE":0,"NORAD_CAT_ID":37740,"ELEMENT_SET_NO":999,"REV_AT_EPOCH":69215,"BSTAR":-0.000082049473,"MEAN_MOTION_DOT":-0.00000118,"MEAN_MOTION_DDOT":0},{"OBJECT_NAME":"GLOBALSTAR M091","OBJECT_ID":"2011-033C","EPOCH":"2026-07-16T06:51:16.560576","CLASSIFICATION_TYPE":"U","MEAN_MOTION":12.62264248,"ECCENTRICITY":0.00004474,"INCLINATION":51.9982,"RA_OF_ASC_NODE":153.3263,"ARG_OF_PERICENTER":25.5454,"MEAN_ANOMALY":138.6067,"EPHEMERIS_TYPE":0,"NORAD_CAT_ID":37741,"ELEMENT_SET_NO":999,"REV_AT_EPOCH":69295,"BSTAR":-0.000070996779,"MEAN_MOTION_DOT":-0.00000116,"MEAN_MOTION_DDOT":0},{"OBJECT_NAME":"GLOBALSTAR M085","OBJECT_ID":"2011-033D","EPOCH":"2026-07-16T04:35:13.179264","CLASSIFICATION_TYPE":"U","MEAN_MOTION":12.62264349,"ECCENTRICITY":0.00007979,"INCLINATION":52.0125,"RA_OF_ASC_NODE":104.9316,"ARG_OF_PERICENTER":42.5641,"MEAN_ANOMALY":112.0435,"EPHEMERIS_TYPE":0,"NORAD_CAT_ID":37742,"ELEMENT_SET_NO":999,"REV_AT_EPOCH":69345,"BSTAR":0.000070668979,"MEAN_MOTION_DOT":-9.1e-7,"MEAN_MOTION_DDOT":0},{"OBJECT_NAME":"GLOBALSTAR M081","OBJECT_ID":"2011-033E","EPOCH":"2026-07-16T05:16:17.805792","CLASSIFICATION_TYPE":"U","MEAN_MOTION":12.62265279,"ECCENTRICITY":0.00006891,"INCLINATION":51.9954,"RA_OF_ASC_NODE":107.2477,"ARG_OF_PERICENTER":55.7416,"MEAN_ANOMALY":108.4066,"EPHEMERIS_TYPE":0,"NORAD_CAT_ID":37743,"ELEMENT_SET_NO":999,"REV_AT_EPOCH":69360,"BSTAR":0.000023298505,"MEAN_MOTION_DOT":-0.000001,"MEAN_MOTION_DDOT":0},{"OBJECT_NAME":"GLOBALSTAR M089","OBJECT_ID":"2011-033F","EPOCH":"2026-07-16T00:25:10.737696","CLASSIFICATION_TYPE":"U","MEAN_MOTION":12.6226758,"ECCENTRICITY":0.00007015,"INCLINATION":51.9936,"RA_OF_ASC_NODE":62.0166,"ARG_OF_PERICENTER":90.3918,"MEAN_ANOMALY":55.7492,"EPHEMERIS_TYPE":0,"NORAD_CAT_ID":37744,"ELEMENT_SET_NO":999,"REV_AT_EPOCH":69442,"BSTAR":0.000076027946,"MEAN_MOTION_DOT":-9e-7,"MEAN_MOTION_DDOT":0},{"OBJECT_NAME":"GLOBALSTAR M084","OBJECT_ID":"2011-080A","EPOCH":"2026-07-15T11:05:21.032736","CLASSIFICATION_TYPE":"U","MEAN_MOTION":12.62263504,"ECCENTRICITY":0.00008243,"INCLINATION":52.0021,"RA_OF_ASC_NODE":291.2057,"ARG_OF_PERICENTER":129.9842,"MEAN_ANOMALY":310.7473,"EPHEMERIS_TYPE":0,"NORAD_CAT_ID":38040,"ELEMENT_SET_NO":999,"REV_AT_EPOCH":67233,"BSTAR":0.00010404154,"MEAN_MOTION_DOT":-8.5e-7,"MEAN_MOTION_DDOT":0}]}
